     3.02           N: GNSS NAV DATA    G: GPS              RINEX VERSION / TYPE
GR10 V3.11          Instituto Geografico20190219 145942 UTC PGM / RUN BY / DATE
GPSA   8.3819D-09 -7.4506D-09 -5.9605D-08  5.9605D-08       IONOSPHERIC CORR
GPSB   8.8064D+04 -1.6384D+04 -1.9661D+05  6.5536D+04       IONOSPHERIC CORR
GPUT -1.8626451492D-09-8.881784197D-15 405504 2041          TIME SYSTEM CORR
    18    18  1929     7                                    LEAP SECONDS
                                                            END OF HEADER
G32 2019 02 19 16 00 00-2.189124934375D-04 1.887201506179D-11 0.000000000000D+00
     4.500000000000D+01 5.137500000000D+01 4.793771108380D-09-1.447706052894D+00
     2.698972821236D-06 2.591098775156D-03 9.775161743164D-06 5.153755559921D+03
     2.304000000000D+05 0.000000000000D+00 8.556739098644D-01-7.450580596924D-09
     9.568519604049D-01 1.891250000000D+02-2.614020095584D+00-8.106409093049D-09
     7.314590396336D-10 1.000000000000D+00 2.041000000000D+03 0.000000000000D+00
     2.000000000000D+00 0.000000000000D+00 4.656612873077D-10 4.500000000000D+01
     2.233200000000D+05                   
G19 2019 02 19 15 59 44-3.507402725518D-04 4.092726157978D-12 0.000000000000D+00
     1.900000000000D+01 1.444375000000D+02 4.062669226480D-09 5.620836001010D-01
     7.605180144310D-06 9.383425465785D-03 6.781890988350D-06 5.153624420166D+03
     2.303840000000D+05-1.490116119385D-07-2.179404586846D+00-1.303851604462D-07
     9.815493837574D-01 2.639687500000D+02 1.347209722178D+00-8.213556413307D-09
     4.203746531488D-10 1.000000000000D+00 2.041000000000D+03 0.000000000000D+00
     2.000000000000D+00 0.000000000000D+00-1.536682248116D-08 1.900000000000D+01
     2.269500000000D+05                   
